[{"OBJECT_NAME":"COSMOS 2506","OBJECT_ID":"2015-029A","EPOCH":"2026-03-09T23:04:50.378016","MEAN_MOTION":14.54348608,"ECCENTRICITY":0.00085368,"INCLINATION":98.0605,"RA_OF_ASC_NODE":113.48,"ARG_OF_PERICENTER":100.8275,"MEAN_ANOMALY":259.3883,"EPHEMERIS_TYPE":0,"CLASSIFICATION_TYPE":"U","NORAD_CAT_ID":40699,"ELEMENT_SET_NO":999,"REV_AT_EPOCH":56846,"BSTAR":2.4503149e-5,"MEAN_MOTION_DOT":6.1e-7,"MEAN_MOTION_DDOT":0},{"OBJECT_NAME":"FENGYUN 1C DEB","OBJECT_ID":"1999-025ELC","EPOCH":"2026-03-03T07:24:09.370656","MEAN_MOTION":13.86110343,"ECCENTRICITY":0.03376894,"INCLINATION":98.1986,"RA_OF_ASC_NODE":92.6159,"ARG_OF_PERICENTER":136.8862,"MEAN_ANOMALY":287.1542,"EPHEMERIS_TYPE":0,"CLASSIFICATION_TYPE":"U","NORAD_CAT_ID":37687,"ELEMENT_SET_NO":999,"REV_AT_EPOCH":84370,"BSTAR":0.003258083,"MEAN_MOTION_DOT":5.848e-5,"MEAN_MOTION_DDOT":0}]
